APRIZESAT 2             
1 28366U 04025A   26197.43884697  .00000083  00000+0  38768-4 0  9996
2 28366  98.1043   1.7670 0106017 161.1249 199.3916 14.38047980155847
SAUDICOMSAT 1           
1 28369U 04025D   26197.98932529  .00000126  00000+0  40205-4 0  9994
2 28369  98.5778 208.9259 0030942 293.1870  66.6068 14.55494269168463
SAUDICOMSAT 2           
1 28370U 04025E   26197.86688031  .00000086  00000+0  34428-4 0  9994
2 28370  98.6643 210.9523 0055734 168.6278 191.6189 14.49994852164407
APRIZESAT 1             
1 28372U 04025G   26197.31040991  .00000105  00000+0  37774-4 0  9992
2 28372  98.6310 208.8290 0045756  67.3683 293.2341 14.51792389166130
NANOSAT-1               
1 28493U 04049B   26197.91300862  .00000454  00000+0  67009-4 0  9995
2 28493  98.2312 335.3076 0003935 178.4396 181.6828 14.80212535159840
SAUDICOMSAT 7           
1 31119U 07012C   26197.86885477  .00000228  00000+0  50058-4 0  9996
2 31119  98.3799 172.6113 0057010 103.1667 257.5906 14.66137543 26787
SAUDICOMSAT 6           
1 31121U 07012E   26197.84992487  .00000157  00000+0  40172-4 0  9994
2 31121  98.4118 165.9222 0070587 233.8607 125.6048 14.62585256 24527
SAUDICOMSAT 5           
1 31124U 07012H   26197.86884660  .00000289  00000+0  58563-4 0  9991
2 31124  98.3511 173.3524 0048135  33.6714 326.7533 14.68193333 27953
SAUDICOMSAT 3           
1 31125U 07012J   26197.91389846  .00000336  00000+0  63382-4 0  9992
2 31125  98.3165 173.9448 0038161 319.6978  40.1400 14.70751120 29192
SAUDICOMSAT 4           
1 31127U 07012L   26197.87488480  .00000189  00000+0  44404-4 0  9993
2 31127  98.4004 171.0543 0063689 164.5036 195.8136 14.64536156 25639
APRIZESAT 4             
1 35684U 09041D   26197.99411073  .00000350  00000+0  48546-4 0  9997
2 35684  98.1404 273.9074 0042340 223.5589 136.2279 14.83915185915788
APRIZESAT 3             
1 35686U 09041F   26197.85743328  .00000614  00000+0  58323-4 0  9992
2 35686  98.2104 352.5098 0060741 330.3880  29.3905 14.96313574920810
S-NET D                 
1 43186U 18014G   26198.14822275  .00002596  00000+0  13507-3 0  9993
2 43186  97.5329 102.7529 0006205 276.3149  83.7377 15.16927696463303
S-NET B                 
1 43187U 18014H   26198.16026557  .00002487  00000+0  12966-3 0  9992
2 43187  97.5334 102.7523 0006817 270.2516  89.7936 15.16897227463307
S-NET A                 
1 43188U 18014J   26198.14693506  .00002611  00000+0  13580-3 0  9997
2 43188  97.5343 102.9538 0006713 271.2106  88.8358 15.16936089463305
S-NET C                 
1 43189U 18014K   26197.70253802  .00002534  00000+0  13207-3 0  9990
2 43189  97.5363 102.5911 0008069 263.8728  96.1585 15.16886737461780
SALSAT                  
1 46495U 20068K   26197.90294493  .00003936  00000+0  13754-3 0  9992
2 46495  97.8857 202.7868 0009381 186.6655 173.4461 15.30185999319903
OOV-CUBE (TUBSAT-30)    
1 60240U 24128F   26198.06347752  .00000952  00000+0  85234-4 0  9990
2 60240  61.9940 121.3870 0040878 140.4347 219.9741 15.02878305110605
LPNTSAT-001 (IOD-1)     
1 68408U 26065A   26197.59623332  .00001320  00000+0  66800-4 0  9992
2 68408  97.3978  77.4803 0014623 260.9687  98.9893 15.18672911 16727
CHUANG XIN 26 (CX-26)   
1 69972U 26158A   26194.51442212 -.00000212  00000+0 -21871-4 0  9997
2 69972  49.9860 287.5119 0004887 294.2352  65.8050 14.25122238   462
